{
  "type": "FeatureCollection",
  "features": [
    {
      "type": "Feature",
      "properties": {},
      "geometry": {
        "type": "Polygon",
        "coordinates": [
          [
            [29.832471045318357, 23.959557854045087],
            [29.601688531371494, 23.949031168484474],
            [29.373236880644704, 23.917557612087734],
            [29.14941981850654, 23.8654554300968],
            [28.932487285735302, 23.79325086992345],
            [28.72460975550908, 23.701672022340627],
            [28.52785395099861, 23.591640361958056],
            [28.344160349829565, 23.46426014177537],
            [28.17532279948768, 23.32080583004176],
            [28.02297049783373, 23.162707804072525],
            [27.88855251939473, 22.991536534582412],
            [27.773324995026314, 22.808985505462513],
            [27.678340983516062, 22.61685311814866],
            [27.604443011694546, 22.417023827557465],
            [27.552258206814095, 22.211448749017045],
            [27.52219590265346, 22.002125963867098],
            [27.514447569469446, 21.791080736675436],
            [27.52898889723968, 21.58034584050289],
            [27.565583850695923, 21.37194216941618],
            [27.623790512044664, 21.167859800392606],
            [27.702968531339867, 20.97003965056576],
            [27.802288013423407, 20.780355860889436],
            [27.92073968242723, 20.600599023990505],
            [28.057146178435794, 20.432460362289724],
            [28.210174354675495, 20.277516952277704],
            [28.37834845646173, 20.137218081904347],
            [28.560064074343952, 20.012872820060284],
            [28.753602773006612, 19.905638869745104],
            [28.957147304359136, 19.816512769383863],
            [29.16879731797131, 19.746321499560274],
            [29.386585484859474, 19.69571554493591],
            [29.608493952002025, 19.665163453154985],
            [29.832471045318357, 19.654947924017893],
            [30.05644813863469, 19.665163453154985],
            [30.27835660577724, 19.69571554493591],
            [30.496144772665403, 19.746321499560274],
            [30.707794786277578, 19.816512769383863],
            [30.9113393176301, 19.905638869745104],
            [31.10487801629277, 20.012872820060284],
            [31.286593634174984, 20.137218081904347],
            [31.454767735961227, 20.277516952277704],
            [31.60779591220092, 20.43246036228973],
            [31.744202408209482, 20.600599023990497],
            [31.862654077213307, 20.780355860889436],
            [31.961973559296847, 20.97003965056576],
            [32.04115157859205, 21.167859800392606],
            [32.09935823994079, 21.371942169416176],
            [32.135953193397036, 21.58034584050289],
            [32.15049452116727, 21.791080736675436],
            [32.142746187983256, 22.002125963867098],
            [32.11268388382262, 22.211448749017045],
            [32.06049907894217, 22.417023827557465],
            [31.986601107120652, 22.61685311814866],
            [31.8916170956104, 22.808985505462513],
            [31.77638957124199, 22.991536534582412],
            [31.64197159280299, 23.162707804072525],
            [31.489619291149033, 23.32080583004176],
            [31.320781740807153, 23.46426014177537],
            [31.137088139638106, 23.591640361958056],
            [30.940332335127636, 23.701672022340627],
            [30.732454804901415, 23.79325086992345],
            [30.51552227213018, 23.8654554300968],
            [30.291705209992017, 23.917557612087734],
            [30.063253559265224, 23.949031168484474],
            [29.832471045318357, 23.959557854045087]
          ]
        ]
      }
    }
  ]
}
